NORAD_CAT_ID,OBJECT_NAME,OBJECT_TYPE,EPOCH,MEAN_MOTION,ECCENTRICITY,INCLINATION,RA_OF_ASC_NODE,ARG_OF_PERICENTER,MEAN_ANOMALY,BSTAR,MEAN_MOTION_DOT,MEAN_MOTION_DDOT,TLE_LINE0,TLE_LINE1,TLE_LINE2,SEMIMAJOR_AXIS,PERIOD,APOGEE,PERIGEE,DECAYED
53034.0,STARLINK-4151,PAYLOAD,2022-11-24 13:31:40,15.08838332,0.0001302,53.2161,66.1812,63.8128,296.2998,-1.6425999999999998e-05,-5.49e-06,0.0,0 STARLINK-4151,1 53034U 22076BA  22328.56366561 -.00000549  00000-0 -16426-4 0  9990,2 53034  53.2161  66.1812 0001302  63.8128 296.2998 15.08838332 22250,6917.885,95.438,540.651,538.85,0.0
53034.0,STARLINK-4151,PAYLOAD,2022-11-25 11:47:05,15.08833879,0.0001485,53.2177,62.0205,63.3354,296.779,-0.00013744,-2.474e-05,0.0,0 STARLINK-4151,1 53034U 22076BA  22329.49103554 -.00002474  00000-0 -13744-3 0  9992,2 53034  53.2177  62.0205 0001485  63.3354 296.7790 15.08833879 22397,6917.899,95.438,540.7909999999998,538.737,0.0
53034.0,STARLINK-4151,PAYLOAD,2022-11-25 16:33:14,15.08838035,0.0001455,53.2173,61.1261,70.46300000000002,289.6519,-0.00010946,-2.029e-05,0.0,0 STARLINK-4151,1 53034U 22076BA  22329.68975245 -.00002029  00000-0 -10946-3 0  9994,2 53034  53.2173  61.1261 0001455  70.4630 289.6519 15.08838035 21969,6917.886,95.438,540.758,538.745,0.0
53034.0,STARLINK-4151,PAYLOAD,2022-11-26 13:13:14,15.08836972,0.000137,53.217,57.2602,69.4189,290.695,1.3992e-05,-6.5e-07,0.0,0 STARLINK-4151,1 53034U 22076BA  22330.55086732 -.00000065  00000-0  13992-4 0  9998,2 53034  53.2170  57.2602 0001370  69.4189 290.6950 15.08836972 22559,6917.89,95.438,540.702,538.807,0.0
53034.0,STARLINK-4151,PAYLOAD,2022-11-26 16:24:01,15.08837219,0.0001366,53.2167,56.6653,64.5425,295.5709,7.602799999999999e-06,-1.67e-06,0.0,0 STARLINK-4151,1 53034U 22076BA  22330.68334780 -.00000167  00000-0  76028-5 0  9994,2 53034  53.2167  56.6653 0001366  64.5425 295.5709 15.08837219 22111,6917.889,95.438,540.6990000000002,538.809,0.0
53034.0,STARLINK-4151,PAYLOAD,2022-11-27 05:07:06,15.08814328,0.0001474,53.2167,54.286,64.8581,295.2564,0.00034491,5.202e-05,0.0,0 STARLINK-4151,1 53034U 22076BA  22331.21327198  .00005202  00000-0  34491-3 0  9999,2 53034  53.2167  54.2860 0001474  64.8581 295.2564 15.08814328 22652,6917.959,95.439,540.844,538.804,0.0
53034.0,STARLINK-4151,PAYLOAD,2022-11-27 06:42:29,15.088297099999998,0.0001351,53.2169,53.9883,57.7854,302.3269,0.00011829,1.595e-05,0.0,0 STARLINK-4151,1 53034U 22076BA  22331.27951022  .00001595  00000-0  11829-3 0  9995,2 53034  53.2169  53.9883 0001351  57.7854 302.3269 15.08829710 22207,6917.9119999999975,95.438,540.711,538.842,0.0
53034.0,STARLINK-4151,PAYLOAD,2022-11-27 14:39:26,15.08826395,0.0001446,53.2169,52.5016,63.8614,296.2527,-1.0414e-05,-4.54e-06,0.0,0 STARLINK-4151,1 53034U 22076BA  22331.61072003 -.00000454  00000-0 -10414-4 0  9991,2 53034  53.2169  52.5016 0001446  63.8614 296.2527 15.08826395 22256,6917.922,95.438,540.7869999999998,538.7869999999998,0.0
53034.0,STARLINK-4151,PAYLOAD,2022-11-28 06:33:17,15.0883311,0.0001349,53.2158,49.5278,58.3802,301.7321,-4.8191e-06,-3.65e-06,0.0,0 STARLINK-4151,1 53034U 22076BA  22332.27311872 -.00000365  00000-0 -48191-5 0  9999,2 53034  53.2158  49.5278 0001349  58.3802 301.7321 15.08833110 22819,6917.901,95.438,540.7,538.8330000000002,0.0
53034.0,STARLINK-4151,PAYLOAD,2022-11-28 09:44:03,15.08836716,0.0001393,53.2163,48.9332,59.0954,301.0175,2.4717e-05,1.05e-06,0.0,0 STARLINK-4151,1 53034U 22076BA  22332.40559596  .00000105  00000-0  24717-4 0  9998,2 53034  53.2163  48.9332 0001393  59.0954 301.0175 15.08836716 22370,6917.89,95.438,540.719,538.7919999999998,0.0
53034.0,STARLINK-4151,PAYLOAD,2022-11-28 12:54:49,15.08838676,0.0001450999999999,53.2165,48.3386,59.9004,300.2132,3.9683e-05,3.44e-06,0.0,0 STARLINK-4151,1 53034U 22076BA  22332.53807460  .00000344  00000-0  39683-4 0  9991,2 53034  53.2165  48.3386 0001451  59.9004 300.2132 15.08838676 22859,6917.884,95.438,540.753,538.746,0.0
53034.0,STARLINK-4151,PAYLOAD,2022-11-29 04:48:41,15.088345,0.0001481,53.2178,45.365,56.118,303.9953,-9.1521e-06,-4.34e-06,0.0,0 STARLINK-4151,1 53034U 22076BA  22333.20048181 -.00000434  00000-0 -91521-5 0  9995,2 53034  53.2178  45.3650 0001481  56.1180 303.9953 15.08834500 22955,6917.897,95.438,540.7869999999998,538.738,0.0
53034.0,STARLINK-4151,PAYLOAD,2022-11-29 11:10:13,15.08833506,0.0001479,53.2166,44.176,56.6754,303.4379,0.00013111,1.799e-05,0.0,0 STARLINK-4151,1 53034U 22076BA  22333.46543736  .00001799  00000-0  13111-3 0  9999,2 53034  53.2166  44.1760 0001479  56.6754 303.4379 15.08833506 22536,6917.9,95.438,540.788,538.742,0.0
53034.0,STARLINK-4151,PAYLOAD,2022-11-30 11:01:00,15.088402800000004,0.0001347,53.2154,39.7148,54.5394,305.5724,6.7573e-05,7.88e-06,0.0,0 STARLINK-4151,1 53034U 22076BA  22334.45903724  .00000788  00000-0  67573-4 0  9995,2 53034  53.2154  39.7148 0001347  54.5394 305.5724 15.08840280 22684,6917.88,95.438,540.6759999999998,538.813,0.0
53034.0,STARLINK-4151,PAYLOAD,2022-12-01 10:51:48,15.08835063,0.000139,53.2154,35.2542,53.1784,306.9335,-2.3057e-05,-6.55e-06,0.0,0 STARLINK-4151,1 53034U 22076BA  22335.45264349 -.00000655  00000-0 -23057-4 0  9993,2 53034  53.2154  35.2542 0001390  53.1784 306.9335 15.08835063 22832,6917.895,95.438,540.722,538.799,0.0
53034.0,STARLINK-4151,PAYLOAD,2022-12-02 04:21:02,15.0884603,0.0001435,53.2164,31.9842,47.4238,312.6875,2.8397e-06,-2.43e-06,0.0,0 STARLINK-4151,1 53034U 22076BA  22336.18127558 -.00000243  00000-0  28397-5 0  9999,2 53034  53.2164  31.9842 0001435  47.4238 312.6875 15.08846030 23402,6917.861999999999,95.437,540.72,538.734,0.0
53034.0,STARLINK-4151,PAYLOAD,2022-12-02 12:17:58,15.08843063,0.0001450999999999,53.2167,30.497,50.8843,309.2278,-2.1281e-05,-6.27e-06,0.0,0 STARLINK-4151,1 53034U 22076BA  22336.51247722 -.00000627  00000-0 -21281-4 0  9993,2 53034  53.2167  30.4970 0001451  50.8843 309.2278 15.08843063 22994,6917.871,95.437,540.74,538.732,0.0
53034.0,STARLINK-4151,PAYLOAD,2022-12-03 04:11:50,15.08828705,0.0001518,53.2177,27.5244,52.4384,307.6745,-5.831100000000001e-05,-1.216e-05,0.0,0 STARLINK-4151,1 53034U 22076BA  22337.17488921 -.00001216  00000-0 -58311-4 0  9993,2 53034  53.2177  27.5244 0001518  52.4384 307.6745 15.08828705 23558,6917.915,95.438,540.83,538.73,0.0
53034.0,STARLINK-4151,PAYLOAD,2022-12-03 10:33:22,15.08832437,0.0001541,53.2178,26.333,57.2988,302.8152,-4.1912e-05,-9.55e-06,0.0,0 STARLINK-4151,1 53034U 22076BA  22337.43984681 -.00000955  00000-0 -41912-4 0  9994,2 53034  53.2178  26.3330 0001541  57.2988 302.8152 15.08832437 23131,6917.904,95.438,540.835,538.702,0.0
53034.0,STARLINK-4151,PAYLOAD,2022-12-04 07:13:23,15.08834819,0.0001603,53.218,22.4684,57.0198,303.0948,-1.6617e-05,-5.52e-06,0.0,0 STARLINK-4151,1 53034U 22076BA  22338.30096845 -.00000552  00000-0 -16617-4 0  9994,2 53034  53.2180  22.4684 0001603  57.0198 303.0948 15.08834819 23720,6917.896,95.438,540.87,538.6519999999998,0.0
53034.0,STARLINK-4151,PAYLOAD,2022-12-04 11:59:32,15.08840299,0.0001644,53.2165,21.5755,51.9686,308.1454,3.0933000000000004e-05,2.04e-06,0.0,0 STARLINK-4151,1 53034U 22076BA  22338.49968382  .00000204  00000-0  30933-4 0  9997,2 53034  53.2165  21.5755 0001644  51.9686 308.1454 15.08840299 23291,6917.879,95.438,540.882,538.607,0.0
53034.0,STARLINK-4151,PAYLOAD,2022-12-05 11:50:19,15.0884457,0.0001909,53.2165,17.1138,55.9886,304.1287,5.3018e-05,5.56e-06,0.0,0 STARLINK-4151,1 53034U 22076BA  22339.49328124  .00000556  00000-0  53018-4 0  9991,2 53034  53.2165  17.1138 0001909  55.9886 304.1287 15.08844570 23440,6917.866,95.437,541.052,538.411,0.0
53034.0,STARLINK-4151,PAYLOAD,2022-12-06 02:08:47,15.08845282,0.0001739,53.2158,14.4376,51.4737,308.641,1.0174e-05,-1.26e-06,0.0,0 STARLINK-4151,1 53034U 22076BA  22340.08944184 -.00000126  00000-0  10174-4 0  9998,2 53034  53.2158  14.4376 0001739  51.4737 308.6410 15.08845282 23991,6917.864000000001,95.437,540.932,538.526,0.0
53034.0,STARLINK-4151,PAYLOAD,2022-12-06 11:41:06,15.08844516,0.0001758,53.2174,12.6553,51.8658,308.2492,-9.0469e-06,-4.32e-06,0.0,0 STARLINK-4151,1 53034U 22076BA  22340.48688127 -.00000432  00000-0 -90469-5 0  9991,2 53034  53.2174  12.6553 0001758  51.8658 308.2492 15.08844516 23594,6917.8669999999975,95.437,540.948,538.515,0.0
53034.0,STARLINK-4151,PAYLOAD,2022-12-07 08:21:08,15.08833071,0.0001774,53.2169,8.7886,53.3111,306.8044,-6.0997e-05,-1.259e-05,0.0,0 STARLINK-4151,1 53034U 22076BA  22341.34801024 -.00001259  00000-0 -60997-4 0  9990,2 53034  53.2169   8.7886 0001774  53.3111 306.8044 15.08833071 24189,6917.901999999999,95.438,540.994,538.539,0.0
53034.0,STARLINK-4151,PAYLOAD,2022-12-07 19:28:50,15.08836008,0.0001901,53.2173,6.7079,45.8993,314.2155,-3.8806e-05,-9.06e-06,0.0,0 STARLINK-4151,1 53034U 22076BA  22341.81168997 -.00000906  00000-0 -38806-4 0  9999,2 53034  53.2173   6.7079 0001901  45.8993 314.2155 15.08836008 23797,6917.893,95.438,541.073,538.442,0.0
53034.0,STARLINK-4151,PAYLOAD,2022-12-08 12:58:04,15.08835212,0.0001556,53.2169,3.439,38.9899,321.1205,-2.0451e-05,-6.13e-06,0.0,0 STARLINK-4151,1 53034U 22076BA  22342.54032539 -.00000613  00000-0 -20451-4 0  9994,2 53034  53.2169   3.4390 0001556  38.9899 321.1205 15.08835212 23908,6917.895,95.438,540.836,538.684,0.0
53034.0,STARLINK-4151,PAYLOAD,2022-12-09 11:13:28,15.08844247,0.0002051,53.2145,359.276,47.4258,312.6907,-0.00015109,-2.692e-05,0.0,0 STARLINK-4151,1 53034U 22076BA  22343.46768978 -.00002692  00000-0 -15109-3 0  9991,2 53034  53.2145 359.2760 0002051  47.4258 312.6907 15.08844247 24048,6917.8669999999975,95.437,541.151,538.314,0.0
53034.0,STARLINK-4151,PAYLOAD,2022-12-10 06:18:05,15.08811377,0.000123,53.2165,355.7054,341.7806,18.3142,0.00038102,5.777e-05,0.0,0 STARLINK-4151,1 53034U 22076BA  22344.26256883  .00005777  00000-0  38102-3 0  9990,2 53034  53.2165 355.7054 0001230 341.7806  18.3142 15.08811377 24627,6917.968000000003,95.439,540.684,538.982,0.0
